NORAD_CAT_ID,OBJECT_NAME,OBJECT_TYPE,EPOCH,MEAN_MOTION,ECCENTRICITY,INCLINATION,RA_OF_ASC_NODE,ARG_OF_PERICENTER,MEAN_ANOMALY,BSTAR,MEAN_MOTION_DOT,MEAN_MOTION_DDOT,TLE_LINE0,TLE_LINE1,TLE_LINE2,SEMIMAJOR_AXIS,PERIOD,APOGEE,PERIGEE,DECAYED
52295.0,STARLINK-3765,PAYLOAD,2024-04-20 20:29:34,15.08816592,0.0001499,53.2172,306.9328,92.0479,268.0685,-0.00038755,-6.447e-05,0.0,0 STARLINK-3765,1 52295U 22041AL  24111.85387624 -.00006447  00000-0 -38755-3 0  9998,2 52295  53.2172 306.9328 0001499  92.0479 268.0685 15.08816592111889,6917.952,95.439,540.854,538.78,0.0
52295.0,STARLINK-3765,PAYLOAD,2024-04-20 22:04:58,15.08816749,0.0001504,53.2171,306.6353,94.7911,265.3253,-0.00036386,-6.07e-05,0.0,0 STARLINK-3765,1 52295U 22041AL  24111.92011705 -.00006070  00000-0 -36386-3 0  9990,2 52295  53.2171 306.6353 0001504  94.7911 265.3253 15.08816749110671,6917.951,95.439,540.857,538.776,0.0
52295.0,STARLINK-3765,PAYLOAD,2024-04-21 18:44:59,15.08839277,0.0002204,53.2179,302.7766,57.1873,302.9331,0.0003341,5.033e-05,0.0,0 STARLINK-3765,1 52295U 22041AL  24112.78124039  .00005033  00000-0  33410-3 0  9991,2 52295  53.2179 302.7766 0002204  57.1873 302.9331 15.08839277112029,6917.883,95.438,541.272,538.223,0.0
52295.0,STARLINK-3765,PAYLOAD,2024-04-22 18:35:45,15.08851015,0.0001458,53.2165,298.3076,118.0711,242.0428,0.00038543,5.853e-05,0.0,0 STARLINK-3765,1 52295U 22041AL  24113.77483254  .00005853  00000-0  38543-3 0  9990,2 52295  53.2165 298.3076 0001458 118.0711 242.0428 15.08851015110951,6917.847,95.437,540.72,538.703,0.0
52295.0,STARLINK-3765,PAYLOAD,2024-04-23 12:05:00,15.08840925,0.0001647,53.2168,295.0388,116.9744,243.1416,-0.00030994,-5.218e-05,0.0,0 STARLINK-3765,1 52295U 22041AL  24114.50347256 -.00005218  00000-0 -30994-3 0  9992,2 52295  53.2168 295.0388 0001647 116.9744 243.1416 15.08840925112282,6917.878,95.437,540.882,538.603,0.0
52295.0,STARLINK-3765,PAYLOAD,2024-04-23 18:26:32,15.08856393,0.0001352,53.2181,293.8573,88.3689,271.7458,0.00016251,2.3e-05,0.0,0 STARLINK-3765,1 52295U 22041AL  24114.76842886  .00002300  00000-0  16251-3 0  9996,2 52295  53.2181 293.8573 0001352  88.3689 271.7458 15.08856393112326,6917.83,95.437,540.631,538.76,0.0
52295.0,STARLINK-3765,PAYLOAD,2024-04-23 21:37:17,15.08865579,0.000143,53.2166,293.2544,118.7941,241.3195,0.00019219,2.774e-05,0.0,0 STARLINK-3765,1 52295U 22041AL  24114.90090044  .00002774  00000-0  19219-3 0  9995,2 52295  53.2166 293.2544 0001430 118.7941 241.3195 15.08865579111121,6917.802,95.436,540.656,538.678,0.0
52295.0,STARLINK-3765,PAYLOAD,2024-04-24 11:55:46,15.08851963,0.0001864,53.2159,290.5753,127.272,232.8442,0.00019338,2.792e-05,0.0,0 STARLINK-3765,1 52295U 22041AL  24115.49706189  .00002792  00000-0  19338-3 0  9996,2 52295  53.2159 290.5753 0001864 127.2720 232.8442 15.08851963112433,6917.844,95.437,540.998,538.419,0.0
52295.0,STARLINK-3765,PAYLOAD,2024-04-24 15:06:32,15.08849729,0.0002101,53.2165,289.9757,149.8902,210.2211,8.0919e-05,1e-05,0.0,0 STARLINK-3765,1 52295U 22041AL  24115.62954005  .00001000  00000-0  80919-4 0  9998,2 52295  53.2165 289.9757 0002101 149.8902 210.2211 15.08849729111231,6917.851,95.437,541.169,538.262,0.0
52295.0,STARLINK-3765,PAYLOAD,2024-04-25 14:57:20,15.08839272,0.0001108,53.2168,285.5199,123.0596,237.0503,-0.00021104,-3.645e-05,0.0,0 STARLINK-3765,1 52295U 22041AL  24116.62314898 -.00003645  00000-0 -21104-3 0  9998,2 52295  53.2168 285.5199 0001108 123.0596 237.0503 15.08839272111384,6917.883,95.438,540.514,538.981,0.0
52295.0,STARLINK-3765,PAYLOAD,2024-04-25 16:32:43,15.08841193,0.000106,53.2183,285.2259,116.0919,244.0182,-0.00011601,-2.134e-05,0.0,0 STARLINK-3765,1 52295U 22041AL  24116.68939445 -.00002134  00000-0 -11601-3 0  9998,2 52295  53.2183 285.2259 0001060 116.0919 244.0182 15.08841193112616,6917.877,95.437,540.475,539.008,0.0
52295.0,STARLINK-3765,PAYLOAD,2024-04-26 14:48:07,15.08832806,9.89e-05,53.2183,281.0649,85.839,274.2715,6.4675e-05,7.42e-06,0.0,0 STARLINK-3765,1 52295U 22041AL  24117.61675674  .00000742  00000-0  64675-4 0  9994,2 52295  53.2183 281.0649 0000989  85.8390 274.2715 15.08832806111536,6917.902,95.438,540.452,539.083,0.0
52295.0,STARLINK-3765,PAYLOAD,2024-04-26 17:58:53,15.0883587,0.0001009,53.2178,280.472,85.2008,274.9099,0.00010179,1.332e-05,0.0,0 STARLINK-3765,1 52295U 22041AL  24117.74923449  .00001332  00000-0  10179-3 0  9999,2 52295  53.2178 280.4720 0001009  85.2008 274.9099 15.08835870112770,6917.893,95.438,540.456,539.06,0.0
52295.0,STARLINK-3765,PAYLOAD,2024-04-27 03:31:11,15.08852583,0.0001017,53.2198,278.6824,87.0483,273.0626,0.00026043,3.861e-05,0.0,0 STARLINK-3765,1 52295U 22041AL  24118.14665815  .00003861  00000-0  26043-3 0  9990,2 52295  53.2198 278.6824 0001017  87.0483 273.0626 15.08852583112835,6917.842,95.437,540.41,539.003,0.0
52295.0,STARLINK-3765,PAYLOAD,2024-04-27 09:52:45,15.08837401,0.0002201,53.2201,277.5004,104.9827,255.1409,0.00014158,1.966e-05,0.0,0 STARLINK-3765,1 52295U 22041AL  24118.41163456  .00001966  00000-0  14158-3 0  9992,2 52295  53.2201 277.5004 0002201 104.9827 255.1409 15.08837401112871,6917.888,95.438,541.276,538.231,0.0
52295.0,STARLINK-3765,PAYLOAD,2024-04-27 14:38:56,15.08815664,0.0001174,53.2175,276.6069,96.3872,263.7254,-2.8162e-05,-7.36e-06,0.0,0 STARLINK-3765,1 52295U 22041AL  24118.61037314 -.00000736  00000-0 -28162-4 0  9994,2 52295  53.2175 276.6069 0001174  96.3872 263.7254 15.08815664111682,6917.955,95.439,540.632,539.008,0.0
52295.0,STARLINK-3765,PAYLOAD,2024-04-27 19:25:05,15.08828,0.000142,53.218,275.7159,124.844,235.2686,-2.4464e-05,-6.77e-06,0.0,0 STARLINK-3765,1 52295U 22041AL  24118.80908677 -.00000677  00000-0 -24464-4 0  9999,2 52295  53.2180 275.7159 0001420 124.8440 235.2686 15.08828000112930,6917.917,95.438,540.764,538.8,0.0
52295.0,STARLINK-3765,PAYLOAD,2024-04-28 03:21:59,15.08840009,0.0001086,53.2177,274.2284,87.1717,272.94,0.00015038,2.106e-05,0.0,0 STARLINK-3765,1 52295U 22041AL  24119.14027771  .00002106  00000-0  15038-3 0  9997,2 52295  53.2177 274.2284 0001086  87.1717 272.9400 15.08840009112985,6917.88,95.438,540.497,538.994,0.0
52295.0,STARLINK-3765,PAYLOAD,2024-04-28 14:29:42,15.08833478,0.0001514,53.2182,272.1459,85.3543,274.7622,2.1996e-05,6.2e-07,0.0,0 STARLINK-3765,1 52295U 22041AL  24119.60396818  .00000062  00000-0  21996-4 0  9999,2 52295  53.2182 272.1459 0001514  85.3543 274.7622 15.08833478111836,6917.9,95.438,540.813,538.718,0.0
52295.0,STARLINK-3765,PAYLOAD,2024-04-28 19:15:51,15.0884343,9.22e-05,53.2178,271.2511,87.0312,273.0785,8.6978e-05,1.097e-05,0.0,0 STARLINK-3765,1 52295U 22041AL  24119.80267876  .00001097  00000-0  86978-4 0  9992,2 52295  53.2178 271.2511 0000922  87.0312 273.0785 15.08843430111869,6917.87,95.437,540.373,539.097,0.0
52295.0,STARLINK-3765,PAYLOAD,2024-04-29 09:34:20,15.08830908,0.0001832,53.2176,268.5779,88.8819,271.2383,0.0002436,3.59e-05,0.0,0 STARLINK-3765,1 52295U 22041AL  24120.39884428  .00003590  00000-0  24360-3 0  9992,2 52295  53.2176 268.5779 0001832  88.8819 271.2383 15.08830908113170,6917.908,95.438,541.041,538.506,0.0
52295.0,STARLINK-3765,PAYLOAD,2024-04-29 14:20:30,15.08826431,0.0001571,53.219,267.686,91.7611,268.3561,0.00017295,2.465e-05,0.0,0 STARLINK-3765,1 52295U 22041AL  24120.59756952  .00002465  00000-0  17295-3 0  9993,2 52295  53.2190 267.6860 0001571  91.7611 268.3561 15.08826431111988,6917.922,95.438,540.874,538.7,0.0
52295.0,STARLINK-3765,PAYLOAD,2024-04-29 19:06:38,15.08838168,0.0001102,53.2177,266.7909,102.1968,257.9147,0.00016027,2.264e-05,0.0,0 STARLINK-3765,1 52295U 22041AL  24120.79628291  .00002264  00000-0  16027-3 0  9998,2 52295  53.2177 266.7909 0001102 102.1968 257.9147 15.08838168112018,6917.886,95.438,540.513,538.989,0.0
52295.0,STARLINK-3765,PAYLOAD,2024-04-30 03:03:34,15.08846416,0.0001106,53.2183,265.3056,88.2811,271.8308,0.00013293,1.829e-05,0.0,0 STARLINK-3765,1 52295U 22041AL  24121.12747859  .00001829  00000-0  13293-3 0  9996,2 52295  53.2183 265.3056 0001106  88.2811 271.8308 15.08846416113287,6917.861,95.437,540.491,538.961,0.0
52295.0,STARLINK-3765,PAYLOAD,2024-04-30 14:11:16,15.08837721,0.0001385,53.2193,263.2243,92.8256,267.2894,0.00012552,1.71e-05,0.0,0 STARLINK-3765,1 52295U 22041AL  24121.59116623  .00001710  00000-0  12552-3 0  9992,2 52295  53.2193 263.2243 0001385  92.8256 267.2894 15.08837721112137,6917.887,95.438,540.71,538.794,0.0
52295.0,STARLINK-3765,PAYLOAD,2024-04-30 15:46:39,15.08844104,0.0001344,53.2202,262.9238,119.0255,241.0872,6.1653e-05,6.94e-06,0.0,0 STARLINK-3765,1 52295U 22041AL  24121.65740185  .00000694  00000-0  61653-4 0  9992,2 52295  53.2202 262.9238 0001344 119.0255 241.0872 15.08844104113369,6917.868,95.437,540.663,538.803,0.0
52295.0,STARLINK-3765,PAYLOAD,2024-05-01 09:15:53,15.08837589,9.55e-05,53.22,259.6532,113.8558,246.2534,0.00027373,4.071e-05,0.0,0 STARLINK-3765,1 52295U 22041AL  24122.38603787  .00004071  00000-0  27373-3 0  9992,2 52295  53.2200 259.6532 0000955 113.8558 246.2534 15.08837589112250,6917.888,95.438,540.413,539.092,0.0
52295.0,STARLINK-3765,PAYLOAD,2024-05-01 15:37:26,15.08845036,0.0001113,53.2178,258.4681,84.6072,275.5047,0.00014547,2.028e-05,0.0,0 STARLINK-3765,1 52295U 22041AL  24122.65099628  .00002028  00000-0  14547-3 0  9994,2 52295  53.2178 258.4681 0001113  84.6072 275.5047 15.08845036112293,6917.865,95.437,540.5,538.96,0.0
52295.0,STARLINK-3765,PAYLOAD,2024-05-02 12:17:27,15.08833662,0.0001261,53.2191,254.598,99.8906,260.2229,-9.3255e-06,-4.36e-06,0.0,0 STARLINK-3765,1 52295U 22041AL  24123.51212349 -.00000436  00000-0 -93255-5 0  9995,2 52295  53.2191 254.5980 0001261  99.8906 260.2229 15.08833662113640,6917.9,95.438,540.637,538.892,0.0
52295.0,STARLINK-3765,PAYLOAD,2024-05-02 13:52:50,15.08832804,0.0001246,53.2184,254.301,99.5314,260.5819,-1.4568e-05,-5.2e-06,0.0,0 STARLINK-3765,1 52295U 22041AL  24123.57836410 -.00000520  00000-0 -14568-4 0  9995,2 52295  53.2184 254.3010 0001246  99.5314 260.5819 15.08832804112438,6917.902,95.438,540.629,538.905,0.0
